[
    {
        "Altitude(m)": 607897.6386238579,
        "Argument of Periapsis(deg)": 0.0,
        "Eccentricity": 0.0,
        "Inclination(deg)": 60.0,
        "Latitude(deg)": -14.293069773408874,
        "Longitude(deg)": -123.38125958606145,
        "Mean Anomaly(deg)": -16.363600000000087,
        "RAAN(deg)": 345.0,
        "Satellite Name": "Test1 1539",
        "Satellite Number": 1539,
        "Semi-Major Axis(m)": 6980739.136638005,
        "Time(s)": 0
    },
    {
        "Altitude(m)": 607750.8391340986,
        "Argument of Periapsis(deg)": 0.00010418945913296404,
        "Eccentricity": 0.0,
        "Inclination(deg)": 60.0,
        "Latitude(deg)": -13.758911471597248,
        "Longitude(deg)": -123.09418992379761,
        "Mean Anomaly(deg)": -15.743493854538235,
        "RAAN(deg)": 344.99957995086027,
        "Satellite Name": "Test1 1539",
        "Satellite Number": 1539,
        "Semi-Major Axis(m)": 6980739.136638005,
        "Time(s)": 10
    },
    {
        "Altitude(m)": 607606.5639154256,
        "Argument of Periapsis(deg)": 0.0002083789182659281,
        "Eccentricity": 0.0,
        "Inclination(deg)": 60.0,
        "Latitude(deg)": -13.224278417610522,
        "Longitude(deg)": -122.80859667722538,
        "Mean Anomaly(deg)": -15.123387709076383,
        "RAAN(deg)": 344.99915990172053,
        "Satellite Name": "Test1 1539",
        "Satellite Number": 1539,
        "Semi-Major Axis(m)": 6980739.136638005,
        "Time(s)": 20
    },
    {
        "Altitude(m)": 607464.8573403212,
        "Argument of Periapsis(deg)": 0.00031256837739889213,
        "Eccentricity": 0.0,
        "Inclination(deg)": 60.0,
        "Latitude(deg)": -12.689190916063412,
        "Longitude(deg)": -122.5244151667628,
        "Mean Anomaly(deg)": -14.503281563614578,
        "RAAN(deg)": 344.9987398525808,
        "Satellite Name": "Test1 1539",
        "Satellite Number": 1539,
        "Semi-Major Axis(m)": 6980739.136638005,
        "Time(s)": 30
    },
    {
        "Altitude(m)": 607325.7625041982,
        "Argument of Periapsis(deg)": 0.0004167578365318562,
        "Eccentricity": 0.0,
        "Inclination(deg)": 60.0,
        "Latitude(deg)": -12.153668999021622,
        "Longitude(deg)": -122.24158105548905,
        "Mean Anomaly(deg)": -13.883175418152726,
        "RAAN(deg)": 344.99831980344106,
        "Satellite Name": "Test1 1539",
        "Satellite Number": 1539,
        "Semi-Major Axis(m)": 6980739.136638005,
        "Time(s)": 40
    },
    {
        "Altitude(m)": 607189.3212070639,
        "Argument of Periapsis(deg)": 0.0005209472956648203,
        "Eccentricity": 0.0,
        "Inclination(deg)": 60.0,
        "Latitude(deg)": -11.617732439942435,
        "Longitude(deg)": -121.9600313176107,
        "Mean Anomaly(deg)": -13.263069272690874,
        "RAAN(deg)": 344.9978997543013,
        "Satellite Name": "Test1 1539",
        "Satellite Number": 1539,
        "Semi-Major Axis(m)": 6980739.136638005,
        "Time(s)": 50
    },
    {
        "Altitude(m)": 607055.5739358362,
        "Argument of Periapsis(deg)": 0.0006251367547977843,
        "Eccentricity": 0.0,
        "Inclination(deg)": 60.0,
        "Latitude(deg)": -11.081400767261265,
        "Longitude(deg)": -121.6797036947311,
        "Mean Anomaly(deg)": -12.642963127229018,
        "RAAN(deg)": 344.99747970516154,
        "Satellite Name": "Test1 1539",
        "Satellite Number": 1539,
        "Semi-Major Axis(m)": 6980739.136638005,
        "Time(s)": 60
    },
    {
        "Altitude(m)": 606924.5598472884,
        "Argument of Periapsis(deg)": 0.0007293262139307483,
        "Eccentricity": 0.0,
        "Inclination(deg)": 60.0,
        "Latitude(deg)": -10.54469327764189,
        "Longitude(deg)": -121.40053615276712,
        "Mean Anomaly(deg)": -12.02285698176722,
        "RAAN(deg)": 344.99705965602186,
        "Satellite Name": "Test1 1539",
        "Satellite Number": 1539,
        "Semi-Major Axis(m)": 6980739.136638005,
        "Time(s)": 70
    },
    {
        "Altitude(m)": 606796.3167516545,
        "Argument of Periapsis(deg)": 0.0008335156730637124,
        "Eccentricity": 0.0,
        "Inclination(deg)": 60.0,
        "Latitude(deg)": -10.007629048906633,
        "Longitude(deg)": -121.12246785235747,
        "Mean Anomaly(deg)": -11.402750836305364,
        "RAAN(deg)": 344.99663960688207,
        "Satellite Name": "Test1 1539",
        "Satellite Number": 1539,
        "Semi-Major Axis(m)": 6980739.136638005,
        "Time(s)": 80
    },
    {
        "Altitude(m)": 606670.8810968462,
        "Argument of Periapsis(deg)": 0.0009377051321966765,
        "Eccentricity": 0.0,
        "Inclination(deg)": 60.0,
        "Latitude(deg)": -9.470226952668494,
        "Longitude(deg)": -120.84543860698847,
        "Mean Anomaly(deg)": -10.782644690843513,
        "RAAN(deg)": 344.99621955774234,
        "Satellite Name": "Test1 1539",
        "Satellite Number": 1539,
        "Semi-Major Axis(m)": 6980739.136638005,
        "Time(s)": 90
    },
    {
        "Altitude(m)": 606548.2879534032,
        "Argument of Periapsis(deg)": 0.0010418945913296407,
        "Eccentricity": 0.0,
        "Inclination(deg)": 60.0,
        "Latitude(deg)": -8.932505666680102,
        "Longitude(deg)": -120.56938834167845,
        "Mean Anomaly(deg)": -10.16253854538166,
        "RAAN(deg)": 344.9957995086026,
        "Satellite Name": "Test1 1539",
        "Satellite Number": 1539,
        "Semi-Major Axis(m)": 6980739.136638005,
        "Time(s)": 100
    },
    {
        "Altitude(m)": 606428.5710000434,
        "Argument of Periapsis(deg)": 0.0011460840504626045,
        "Eccentricity": 0.0,
        "Inclination(deg)": 60.0,
        "Latitude(deg)": -8.394483686915509,
        "Longitude(deg)": -120.29425806506866,
        "Mean Anomaly(deg)": -9.542432399919857,
        "RAAN(deg)": 344.99537945946287,
        "Satellite Name": "Test1 1539",
        "Satellite Number": 1539,
        "Semi-Major Axis(m)": 6980739.136638005,
        "Time(s)": 110
    },
    {
        "Altitude(m)": 606311.7625099677,
        "Argument of Periapsis(deg)": 0.0012502735095955685,
        "Eccentricity": 0.0,
        "Inclination(deg)": 60.0,
        "Latitude(deg)": -7.856179339404413,
        "Longitude(deg)": -120.01998932914128,
        "Mean Anomaly(deg)": -8.922326254458003,
        "RAAN(deg)": 344.99495941032313,
        "Satellite Name": "Test1 1539",
        "Satellite Number": 1539,
        "Semi-Major Axis(m)": 6980739.136638005,
        "Time(s)": 120
    },
    {
        "Altitude(m)": 606197.8933377626,
        "Argument of Periapsis(deg)": 0.0013544629687285324,
        "Eccentricity": 0.0,
        "Inclination(deg)": 60.0,
        "Latitude(deg)": -7.317610791834125,
        "Longitude(deg)": -119.74652368941031,
        "Mean Anomaly(deg)": -8.302220108996252,
        "RAAN(deg)": 344.99453936118334,
        "Satellite Name": "Test1 1539",
        "Satellite Number": 1539,
        "Semi-Major Axis(m)": 6980739.136638005,
        "Time(s)": 130
    },
    {
        "Altitude(m)": 606086.9929070796,
        "Argument of Periapsis(deg)": 0.0014586524278614966,
        "Eccentricity": 0.0,
        "Inclination(deg)": 60.0,
        "Latitude(deg)": -6.7787960649320524,
        "Longitude(deg)": -119.47380367842916,
        "Mean Anomaly(deg)": -7.6821139635344,
        "RAAN(deg)": 344.9941193120436,
        "Satellite Name": "Test1 1539",
        "Satellite Number": 1539,
        "Semi-Major Axis(m)": 6980739.136638005,
        "Time(s)": 140
    },
    {
        "Altitude(m)": 605979.0891989857,
        "Argument of Periapsis(deg)": 0.0015628418869944607,
        "Eccentricity": 0.0,
        "Inclination(deg)": 60.0,
        "Latitude(deg)": -6.239753043649766,
        "Longitude(deg)": -119.20177226683874,
        "Mean Anomaly(deg)": -7.062007818072598,
        "RAAN(deg)": 344.99369926290393,
        "Satellite Name": "Test1 1539",
        "Satellite Number": 1539,
        "Semi-Major Axis(m)": 6980739.136638005,
        "Time(s)": 150
    },
    {
        "Altitude(m)": 605874.2087410096,
        "Argument of Periapsis(deg)": 0.0016670313461274247,
        "Eccentricity": 0.0,
        "Inclination(deg)": 60.0,
        "Latitude(deg)": -5.700499488159905,
        "Longitude(deg)": -118.93037232479959,
        "Mean Anomaly(deg)": -6.4419016726107445,
        "RAAN(deg)": 344.99327921376414,
        "Satellite Name": "Test1 1539",
        "Satellite Number": 1539,
        "Semi-Major Axis(m)": 6980739.136638005,
        "Time(s)": 160
    },
    {
        "Altitude(m)": 605772.3765968941,
        "Argument of Periapsis(deg)": 0.0017712208052603888,
        "Eccentricity": 0.0,
        "Inclination(deg)": 60.0,
        "Latitude(deg)": -5.161053044681377,
        "Longitude(deg)": -118.65954759665297,
        "Mean Anomaly(deg)": -5.821795527148994,
        "RAAN(deg)": 344.9928591646244,
        "Satellite Name": "Test1 1539",
        "Satellite Number": 1539,
        "Semi-Major Axis(m)": 6980739.136638005,
        "Time(s)": 170
    },
    {
        "Altitude(m)": 605673.6163571161,
        "Argument of Periapsis(deg)": 0.001875410264393353,
        "Eccentricity": 0.0,
        "Inclination(deg)": 60.0,
        "Latitude(deg)": -4.6214312561489415,
        "Longitude(deg)": -118.38924216303468,
        "Mean Anomaly(deg)": -5.20168938168714,
        "RAAN(deg)": 344.9924391154847,
        "Satellite Name": "Test1 1539",
        "Satellite Number": 1539,
        "Semi-Major Axis(m)": 6980739.136638005,
        "Time(s)": 180
    },
    {
        "Altitude(m)": 605577.9501300763,
        "Argument of Periapsis(deg)": 0.0019795997235263173,
        "Eccentricity": 0.0,
        "Inclination(deg)": 60.0,
        "Latitude(deg)": -4.0816515727421905,
        "Longitude(deg)": -118.11939990328551,
        "Mean Anomaly(deg)": -4.581583236225338,
        "RAAN(deg)": 344.99201906634494,
        "Satellite Name": "Test1 1539",
        "Satellite Number": 1539,
        "Semi-Major Axis(m)": 6980739.136638005,
        "Time(s)": 190
    }
]